IRIDIUM 112             
1 41925U 17003J   23319.53757255  .00000129  00000+0  39043-4 0  9993
2 41925  86.3938 123.1279 0001982  85.8398 274.3024 14.34218193357874
IRIDIUM 111             
1 41926U 17003K   23319.52488613  .00000089  00000+0  24858-4 0  9995
2 41926  86.3942 123.1832 0001895  96.9540 263.1871 14.34218706357854
IRIDIUM 113             
1 42803U 17039A   23319.50485735  .00000377  00000+0  12772-3 0  9990
2 42803  86.3992 356.9422 0001964  93.6086 266.5334 14.34217502335783
IRIDIUM 123             
1 42804U 17039B   23319.26725559  .00000398  00000+0  13519-3 0  9998
2 42804  86.4008  28.5271 0001927  94.2186 265.9230 14.34218803334517
IRIDIUM 120             
1 42805U 17039C   23319.49851061  .00000355  00000+0  11987-3 0  9992
2 42805  86.3981 356.8499 0002107  93.7364 266.4073 14.34217273335779
IRIDIUM 115             
1 42806U 17039D   23318.86193704  .00000169  00000+0  44266-4 0  9996
2 42806  86.4520 357.1083 0002046  99.4737 260.6695 14.43336085337919
IRIDIUM 118             
1 42807U 17039E   23319.22920194  .00000382  00000+0  12939-3 0  9997
2 42807  86.4008  28.5452 0002099  94.4169 265.7266 14.34218646334506
IRIDIUM 117             
1 42808U 17039F   23319.24823463  .00000390  00000+0  13228-3 0  9992
2 42808  86.4007  28.5034 0002082  98.2734 261.8698 14.34216134334533
